[{"OBJECT_NAME":"STARLINK-35827","OBJECT_ID":"2025-254T","EPOCH":"2026-03-09T17:41:21.264288","MEAN_MOTION":15.30204167,"ECCENTRICITY":9.109e-5,"INCLINATION":53.1579,"RA_OF_ASC_NODE":232.1795,"ARG_OF_PERICENTER":69.894,"MEAN_ANOMALY":290.2159,"EPHEMERIS_TYPE":0,"CLASSIFICATION_TYPE":"U","NORAD_CAT_ID":66365,"ELEMENT_SET_NO":999,"REV_AT_EPOCH":1898,"BSTAR":0.0015561682,"MEAN_MOTION_DOT":0.00046022,"MEAN_MOTION_DDOT":0},{"OBJECT_NAME":"COSMOS 2251 DEB","OBJECT_ID":"1993-036BN","EPOCH":"2026-03-09T17:54:27.582912","MEAN_MOTION":15.31852549,"ECCENTRICITY":0.0043021,"INCLINATION":74.0291,"RA_OF_ASC_NODE":318.0178,"ARG_OF_PERICENTER":323.0874,"MEAN_ANOMALY":36.7369,"EPHEMERIS_TYPE":0,"CLASSIFICATION_TYPE":"U","NORAD_CAT_ID":33821,"ELEMENT_SET_NO":999,"REV_AT_EPOCH":76330,"BSTAR":0.0011195846,"MEAN_MOTION_DOT":0.00035571,"MEAN_MOTION_DDOT":0}]
